[{"OBJECT_NAME":"COSMOS 2251 DEB","OBJECT_ID":"1993-036BYE","EPOCH":"2026-04-01T19:06:15.144768","MEAN_MOTION":14.36977665,"ECCENTRICITY":0.01366125,"INCLINATION":74.092,"RA_OF_ASC_NODE":107.2057,"ARG_OF_PERICENTER":108.4503,"MEAN_ANOMALY":67.6059,"EPHEMERIS_TYPE":0,"CLASSIFICATION_TYPE":"U","NORAD_CAT_ID":47074,"ELEMENT_SET_NO":999,"REV_AT_EPOCH":4262,"BSTAR":0.0014124809,"MEAN_MOTION_DOT":4.636e-5,"MEAN_MOTION_DDOT":0},{"OBJECT_NAME":"COSMOS 2251 DEB","OBJECT_ID":"1993-036BYJ","EPOCH":"2026-03-29T02:10:10.533216","MEAN_MOTION":15.04584963,"ECCENTRICITY":0.00173949,"INCLINATION":74.0224,"RA_OF_ASC_NODE":23.9331,"ARG_OF_PERICENTER":111.5766,"MEAN_ANOMALY":264.7572,"EPHEMERIS_TYPE":0,"CLASSIFICATION_TYPE":"U","NORAD_CAT_ID":47116,"ELEMENT_SET_NO":999,"REV_AT_EPOCH":61107,"BSTAR":0.0024511362,"MEAN_MOTION_DOT":0.00034652,"MEAN_MOTION_DDOT":0},{"OBJECT_NAME":"COSMOS 2251 DEB","OBJECT_ID":"1993-036BYP","EPOCH":"2026-04-05T06:04:27.033024","MEAN_MOTION":14.42546536,"ECCENTRICITY":0.00194595,"INCLINATION":74.034,"RA_OF_ASC_NODE":90.9492,"ARG_OF_PERICENTER":154.5282,"MEAN_ANOMALY":205.6838,"EPHEMERIS_TYPE":0,"CLASSIFICATION_TYPE":"U","NORAD_CAT_ID":53093,"ELEMENT_SET_NO":999,"REV_AT_EPOCH":19362,"BSTAR":0.0011171301,"MEAN_MOTION_DOT":3.69e-5,"MEAN_MOTION_DDOT":0}]
